[{"OBJECT_NAME":"STARLINK-31734","OBJECT_ID":"2024-074A","EPOCH":"2026-03-09T02:57:30.749184","MEAN_MOTION":15.27590006,"ECCENTRICITY":7.405e-5,"INCLINATION":42.9996,"RA_OF_ASC_NODE":335.8332,"ARG_OF_PERICENTER":303.0667,"MEAN_ANOMALY":57.0114,"EPHEMERIS_TYPE":0,"CLASSIFICATION_TYPE":"U","NORAD_CAT_ID":59534,"ELEMENT_SET_NO":999,"REV_AT_EPOCH":10605,"BSTAR":4.314832e-5,"MEAN_MOTION_DOT":9.26e-6,"MEAN_MOTION_DDOT":0},{"OBJECT_NAME":"GEOSCAN 6 (RS92S6)","OBJECT_ID":"2025-155D","EPOCH":"2026-03-09T21:52:39.201312","MEAN_MOTION":15.27985277,"ECCENTRICITY":0.00087677,"INCLINATION":97.4466,"RA_OF_ASC_NODE":37.2933,"ARG_OF_PERICENTER":153.7679,"MEAN_ANOMALY":206.4006,"EPHEMERIS_TYPE":0,"CLASSIFICATION_TYPE":"U","NORAD_CAT_ID":64879,"ELEMENT_SET_NO":999,"REV_AT_EPOCH":6559,"BSTAR":0.00053762354,"MEAN_MOTION_DOT":0.00014633,"MEAN_MOTION_DDOT":0}]
